NORAD_CAT_ID,OBJECT_NAME,OBJECT_TYPE,EPOCH,MEAN_MOTION,ECCENTRICITY,INCLINATION,RA_OF_ASC_NODE,ARG_OF_PERICENTER,MEAN_ANOMALY,BSTAR,MEAN_MOTION_DOT,MEAN_MOTION_DDOT,TLE_LINE0,TLE_LINE1,TLE_LINE2,SEMIMAJOR_AXIS,PERIOD,APOGEE,PERIGEE,DECAYED
51852.0,STARLINK-3542,PAYLOAD,2022-08-08 14:00:01,15.08850737,0.0002406,53.2148,135.9252,67.3813,106.3529,0.0016090999999999,0.00025422,0.0,0 STARLINK-3542,1 51852U 22022A   22220.58335648  .00025422  00000-0  16091-2 0  9993,2 51852  53.2148 135.9252 0002406  67.3813 106.3529 15.08850737  1307,6917.848000000001,95.437,541.377,538.048,0.0
51852.0,STARLINK-3542,PAYLOAD,2022-08-08 22:00:00,15.08878732,0.0002416,53.2151,134.4297,66.928,118.3641,-0.0029103,-0.00046359,0.0,0 STARLINK-3542,1 51852U 22022A   22220.91667824 -.00046359  00000-0 -29103-2 0  9996,2 51852  53.2151 134.4297 0002416  66.9280 118.3641 15.08878732  1301,6917.762,95.435,541.298,537.956,0.0
51852.0,STARLINK-3542,PAYLOAD,2022-08-09 14:00:01,15.08793348,0.0002173,53.2152,131.436,64.9623,143.5409,0.0022395,0.00035488,0.0,0 STARLINK-3542,1 51852U 22022A   22221.58334491  .00035488  00000-0  22395-2 0  9996,2 51852  53.2152 131.4360 0002173  64.9623 143.5409 15.08793348  1300,6918.023,95.441,541.391,538.385,0.0
51852.0,STARLINK-3542,PAYLOAD,2022-08-09 22:00:00,15.08828214,0.0002296999999999,53.2155,129.9408,64.6987,155.3532,-0.0010899,-0.00017587,0.0,0 STARLINK-3542,1 51852U 22022A   22221.91667824 -.00017587  00000-0 -10899-2 0  9990,2 51852  53.2155 129.9408 0002297  64.6987 155.3532 15.08828214  1304,6917.916,95.438,541.37,538.192,0.0
51852.0,STARLINK-3542,PAYLOAD,2022-08-10 14:00:01,15.08810993,0.0002264,53.2158,126.9472,65.8506,177.3621,0.0030535,0.00048606,0.0,0 STARLINK-3542,1 51852U 22022A   22222.58334491  .00048606  00000-0  30535-2 0  9998,2 51852  53.2158 126.9472 0002264  65.8506 177.3621 15.08810993  1307,6917.969,95.439,541.4,538.268,0.0
51852.0,STARLINK-3542,PAYLOAD,2022-08-10 17:07:18,15.08827511,0.0002314,53.2159,126.3632,67.8771,162.2221,0.0019621,0.00031067,0.0,0 STARLINK-3542,1 51852U 22022A   22222.71341435  .00031067  00000-0  19621-2 0  9995,2 51852  53.2159 126.3632 0002314  67.8771 162.2221 15.08827511 25705,6917.919,95.438,541.384,538.183,0.0
51852.0,STARLINK-3542,PAYLOAD,2022-08-10 22:00:00,15.08851772,0.0002379,53.216,125.452,65.0583,189.7314,-0.0010800999999999,-0.00017443,0.0,0 STARLINK-3542,1 51852U 22022A   22222.91667824 -.00017443  00000-0 -10801-2 0  9995,2 51852  53.2160 125.4520 0002379  65.0583 189.7314 15.08851772  1308,6917.844,95.437,541.355,538.064,0.0
51852.0,STARLINK-3542,PAYLOAD,2022-08-11 06:00:02,15.08853128,0.0002369,53.2159,123.9562,61.343,205.1074,-0.0017067999999999,-0.0002736,0.0,0 STARLINK-3542,1 51852U 22022A   22223.25002315 -.00027360  00000-0 -17068-2 0  9992,2 51852  53.2159 123.9562 0002369  61.3430 205.1074 15.08853128 25785,6917.84,95.437,541.344,538.066,0.0
51852.0,STARLINK-3542,PAYLOAD,2022-08-11 14:00:01,15.08803697,0.0002229,53.2163,122.4582,66.4895,211.5091,0.0032321,0.00051476,0.0,0 STARLINK-3542,1 51852U 22022A   22223.58334491  .00051476  00000-0  32321-2 0  9993,2 51852  53.2163 122.4582 0002229  66.4895 211.5091 15.08803697  1300,6917.991,95.44,541.398,538.314,0.0
51852.0,STARLINK-3542,PAYLOAD,2022-08-12 00:00:00,15.08842936,0.0002392,53.2163,120.5894,63.4678,319.0056,-0.0003123,-5.256e-05,0.0,0 STARLINK-3542,1 51852U 22022A   22224.00001157 -.00005256  00000-0 -31230-3 0  9997,2 51852  53.2163 120.5894 0002392  63.4678 319.0056 15.08842936 25896,6917.871,95.437,541.391,538.082,0.0
51852.0,STARLINK-3542,PAYLOAD,2022-08-12 14:00:01,15.08811332,0.0002145999999999,53.2164,117.9691,67.6632,245.1243,0.0032395,0.00051607,0.0,0 STARLINK-3542,1 51852U 22022A   22224.58334491  .00051607  00000-0  32395-2 0  9991,2 51852  53.2164 117.9691 0002146  67.6632 245.1243 15.08811332  1308,6917.968000000003,95.439,541.318,538.3480000000002,0.0
51852.0,STARLINK-3542,PAYLOAD,2022-08-12 22:00:01,15.08848413,0.0002236,53.2164,116.4739,64.9456,259.4799,-0.0012074,-0.00019458,0.0,0 STARLINK-3542,1 51852U 22022A   22224.91668981 -.00019458  00000-0 -12074-2 0  9994,2 51852  53.2164 116.4739 0002236  64.9456 259.4799 15.08848413  1303,6917.855,95.437,541.2669999999998,538.173,0.0
51852.0,STARLINK-3542,PAYLOAD,2022-08-13 06:00:02,15.08852496,0.0002186,53.2159,114.9777,61.8251,274.1955,-0.0026046999999999,-0.00041519,0.0,0 STARLINK-3542,1 51852U 22022A   22225.25002315 -.00041519  00000-0 -26047-2 0  9993,2 51852  53.2159 114.9777 0002186  61.8251 274.1955 15.08852496 26081,6917.842,95.437,541.219,538.195,0.0
51852.0,STARLINK-3542,PAYLOAD,2022-08-13 14:00:01,15.08800371,0.000204,53.216,113.4798,69.008,278.5499,0.0035015999999999,0.00055822,0.0,0 STARLINK-3542,1 51852U 22022A   22225.58334491  .00055822  00000-0  35016-2 0  9998,2 51852  53.2160 113.4798 0002040  69.0080 278.5499 15.08800371  1303,6918.002,95.44,541.278,538.455,0.0
51852.0,STARLINK-3542,PAYLOAD,2022-08-13 22:00:00,15.08843071,0.0002138,53.216,111.9849,65.8826,293.2464,-0.0010549,-0.0001704,0.0,0 STARLINK-3542,1 51852U 22022A   22225.91667824 -.00017040  00000-0 -10549-2 0  9990,2 51852  53.2160 111.9849 0002138  65.8826 293.2464 15.08843071  1303,6917.871,95.437,541.215,538.257,0.0
51852.0,STARLINK-3542,PAYLOAD,2022-08-14 14:00:01,15.08794415,0.0001918,53.2154,108.9905,70.2956,312.0174,0.0034537,0.00055039,0.0,0 STARLINK-3542,1 51852U 22022A   22226.58334491  .00055039  00000-0  34537-2 0  9996,2 51852  53.2154 108.9905 0001918  70.2956 312.0174 15.08794415  1309,6918.02,95.44,541.212,538.558,0.0
51852.0,STARLINK-3542,PAYLOAD,2022-08-14 22:00:00,15.0883381,0.0002043,53.2153,107.4957,66.2412,327.6352,-0.0010182,-0.00016454,0.0,0 STARLINK-3542,1 51852U 22022A   22226.91667824 -.00016454  00000-0 -10182-2 0  9992,2 51852  53.2153 107.4957 0002043  66.2412 327.6352 15.08833810  1304,6917.899,95.438,541.178,538.351,0.0
51852.0,STARLINK-3542,PAYLOAD,2022-08-15 06:00:00,15.08840886,0.0002031,53.2148,105.999,64.502,340.9488,-0.0008613,-0.0001396999999999,0.0,0 STARLINK-3542,1 51852U 22022A   22227.25001157 -.00013970  00000-0 -86130-3 0  9998,2 51852  53.2148 105.9990 0002031  64.5020 340.9488 15.08840886 26396,6917.878000000002,95.437,541.148,538.3380000000002,0.0
51852.0,STARLINK-3542,PAYLOAD,2022-08-15 14:00:01,15.08815621,0.0001966999999999,53.2148,104.5011,72.2455,344.8004,0.0029962,0.00047688,0.0,0 STARLINK-3542,1 51852U 22022A   22227.58334491  .00047688  00000-0  29962-2 0  9994,2 51852  53.2148 104.5011 0001967  72.2455 344.8004 15.08815621  1300,6917.955,95.439,541.181,538.4590000000002,0.0
51852.0,STARLINK-3542,PAYLOAD,2022-08-15 22:00:00,15.08847981,0.0002075,53.2148,103.0063,67.7127,0.9194,-0.00097749,-0.00015815,0.0,0 STARLINK-3542,1 51852U 22022A   22227.91667824 -.00015815  00000-0 -97749-3 0  9998,2 51852  53.2148 103.0063 0002075  67.7127   0.9194 15.08847981  1301,6917.856,95.437,541.156,538.286,0.0
51852.0,STARLINK-3542,PAYLOAD,2022-08-16 06:00:02,15.08868619,0.0001998,53.2145,101.5093,65.4927,14.7976,-0.0039303,-0.00062348,0.0,0 STARLINK-3542,1 51852U 22022A   22228.25002315 -.00062348  00000-0 -39303-2 0  9998,2 51852  53.2145 101.5093 0001998  65.4927  14.7976 15.08868619 26545,6917.793000000002,95.436,541.04,538.276,0.0
51852.0,STARLINK-3542,PAYLOAD,2022-08-16 14:00:01,15.08811331,0.0001908,53.2146,100.0115,72.2278,19.6068,0.0026818,0.00042618,0.0,0 STARLINK-3542,1 51852U 22022A   22228.58334491  .00042618  00000-0  26818-2 0  9990,2 51852  53.2146 100.0115 0001908  72.2278  19.6068 15.08811331  1303,6917.968000000003,95.439,541.153,538.513,0.0
51852.0,STARLINK-3542,PAYLOAD,2022-08-16 22:00:00,15.08837651,0.0002032,53.2146,98.5168,67.2676,36.1456,-0.00070013,-0.00011413,0.0,0 STARLINK-3542,1 51852U 22022A   22228.91667824 -.00011413  00000-0 -70013-3 0  9994,2 51852  53.2146  98.5168 0002032  67.2676  36.1456 15.08837651 26649,6917.888000000001,95.438,541.158,538.347,0.0
51852.0,STARLINK-3542,PAYLOAD,2022-08-17 14:00:01,15.08839428,0.0001943,53.2149,95.522,72.3273,54.2731,0.0012884,0.00020276,0.0,0 STARLINK-3542,1 51852U 22022A   22229.58334491  .00020276  00000-0  12884-2 0  9995,2 51852  53.2149  95.5220 0001943  72.3273  54.2731 15.08839428 26740,6917.882,95.438,541.091,538.403,0.0
51852.0,STARLINK-3542,PAYLOAD,2022-08-17 16:00:00,15.08865775,0.0001953,53.2153,95.1475,73.3493,146.144,-0.0019332999999999,-0.00030947,0.0,0 STARLINK-3542,1 51852U 22022A   22229.66667824 -.00030947  00000-0 -19333-2 0  9997,2 51852  53.2153  95.1475 0001953  73.3493 146.1440 15.08865775  1306,6917.802,95.436,541.018,538.316,0.0
51852.0,STARLINK-3542,PAYLOAD,2022-08-18 08:00:01,15.08851419,0.0001885999999999,53.2155,92.1556,67.0871,175.6093,-0.00079502,-0.00012923,0.0,0 STARLINK-3542,1 51852U 22022A   22230.33334491 -.00012923  00000-0 -79502-3 0  9993,2 51852  53.2155  92.1556 0001886  67.0871 175.6093 15.08851419 26858,6917.845,95.437,541.015,538.406,0.0
51852.0,STARLINK-3542,PAYLOAD,2022-08-18 14:00:01,15.08838891,0.0001906,53.2156,91.0326,71.6373,89.7604,0.0022269,0.0003532999999999,0.0,0 STARLINK-3542,1 51852U 22022A   22230.58334491  .00035330  00000-0  22269-2 0  9992,2 51852  53.2156  91.0326 0001906  71.6373  89.7604 15.08838891  1308,6917.884,95.438,541.067,538.43,0.0
51852.0,STARLINK-3542,PAYLOAD,2022-08-18 22:00:00,15.08866372,0.0001975,53.2157,89.538,65.2246,107.7822,-0.0017565999999999,-0.00028156,0.0,0 STARLINK-3542,1 51852U 22022A   22230.91667824 -.00028156  00000-0 -17566-2 0  9992,2 51852  53.2157  89.5380 0001975  65.2246 107.7822 15.08866372  1303,6917.8,95.436,541.031,538.299,0.0
51852.0,STARLINK-3542,PAYLOAD,2022-08-19 06:00:00,15.08864764,0.0001793,53.2158,88.0409,64.322,120.2991,-0.004704,-0.00074431,0.0,0 STARLINK-3542,1 51852U 22022A   22231.25001157 -.00074431  00000-0 -47040-2 0  9998,2 51852  53.2158  88.0409 0001793  64.3220 120.2991 15.08864764 26992,6917.805,95.436,540.91,538.429,0.0
